{
  "norad_id": 64610,
  "name": "STARLINK-34569",
  "history": [
    {
      "epoch": "2026-05-03T19:54:15.236064Z",
      "apogee_km": 476.0434886560579,
      "perigee_km": 474.4370570233041,
      "latitude_deg": -1.5870826256283054e-05,
      "longitude_deg": -80.93931031000731,
      "height_km": 475.5251704980826,
      "semi_major_axis_km": 6853.377272839681,
      "eccentricity": 0.0001172,
      "inclination_deg": 53.1567,
      "raan_deg": 79.3516,
      "arg_perigee_deg": 40.1971,
      "mean_anomaly_deg": 319.9116,
      "mean_motion_rev_day": 15.30191559
    },
    {
      "epoch": "2026-05-04T20:59:06.641088Z",
      "apogee_km": 476.0428457457583,
      "perigee_km": 474.3171805218517,
      "latitude_deg": -9.179117777290824e-06,
      "longitude_deg": -103.03533440698018,
      "height_km": 475.9859993594877,
      "semi_major_axis_km": 6853.317013133805,
      "eccentricity": 0.0001259,
      "inclination_deg": 53.157,
      "raan_deg": 74.4998,
      "arg_perigee_deg": 83.8926,
      "mean_anomaly_deg": 276.2218,
      "mean_motion_rev_day": 15.30211741
    },
    {
      "epoch": "2026-05-05T06:23:25.641600Z",
      "apogee_km": 475.9890647292159,
      "perigee_km": 474.33741937088234,
      "latitude_deg": 1.582004119332166e-05,
      "longitude_deg": 113.68205290476926,
      "height_km": 476.0654830615687,
      "semi_major_axis_km": 6853.300242050049,
      "eccentricity": 0.0001205,
      "inclination_deg": 53.1595,
      "raan_deg": 72.6826,
      "arg_perigee_deg": 90.2863,
      "mean_anomaly_deg": 269.8276,
      "mean_motion_rev_day": 15.30217358
    },
    {
      "epoch": "2026-05-06T05:54:12.996864Z",
      "apogee_km": 476.5207919877412,
      "perigee_km": 473.88362705991676,
      "latitude_deg": -2.7079348136548333e-05,
      "longitude_deg": 115.46795264354705,
      "height_km": 476.9166208317556,
      "semi_major_axis_km": 6853.339209523829,
      "eccentricity": 0.0001924,
      "inclination_deg": 53.1597,
      "raan_deg": 68.1315,
      "arg_perigee_deg": 231.9287,
      "mean_anomaly_deg": 128.154,
      "mean_motion_rev_day": 15.30204307
    },
    {
      "epoch": "2026-05-07T13:15:18.110016Z",
      "apogee_km": 476.0206209422031,
      "perigee_km": 474.3456694987117,
      "latitude_deg": -3.233903731636905e-06,
      "longitude_deg": -2.158396256991756,
      "height_km": 475.9518261311366,
      "semi_major_axis_km": 6853.320145220457,
      "eccentricity": 0.0001222,
      "inclination_deg": 53.1602,
      "raan_deg": 62.064,
      "arg_perigee_deg": 81.104,
      "mean_anomaly_deg": 279.0099,
      "mean_motion_rev_day": 15.30210692
    },
    {
      "epoch": "2026-05-08T19:02:18.140064Z",
      "apogee_km": 476.12762235213813,
      "perigee_km": 474.1785466521069,
      "latitude_deg": -1.8319931008721924e-05,
      "longitude_deg": -95.89599485972626,
      "height_km": 475.826176177149,
      "semi_major_axis_km": 6853.290084502122,
      "eccentricity": 0.0001422,
      "inclination_deg": 53.1605,
      "raan_deg": 56.2997,
      "arg_perigee_deg": 76.6575,
      "mean_anomaly_deg": 283.4584,
      "mean_motion_rev_day": 15.3022076
    },
    {
      "epoch": "2026-05-09T01:18:30.915936Z",
      "apogee_km": 475.92225156214863,
      "perigee_km": 474.55472901681514,
      "latitude_deg": 1.3591799127207836e-06,
      "longitude_deg": 168.57877771051457,
      "height_km": 476.3395630401623,
      "semi_major_axis_km": 6853.375490289482,
      "eccentricity": 9.977e-05,
      "inclination_deg": 53.161,
      "raan_deg": 55.0852,
      "arg_perigee_deg": 107.2242,
      "mean_anomaly_deg": 252.8868,
      "mean_motion_rev_day": 15.30192156
    },
    {
      "epoch": "2026-05-10T11:47:41.847648Z",
      "apogee_km": 476.0505154760831,
      "perigee_km": 474.3700747193243,
      "latitude_deg": 6.313738309483702e-05,
      "longitude_deg": 3.193967691705217,
      "height_km": 476.1018637846324,
      "semi_major_axis_km": 6853.347295097703,
      "eccentricity": 0.0001226,
      "inclination_deg": 53.1609,
      "raan_deg": 48.4122,
      "arg_perigee_deg": 89.5462,
      "mean_anomaly_deg": 270.568,
      "mean_motion_rev_day": 15.30201599
    },
    {
      "epoch": "2026-05-11T17:34:42.424608Z",
      "apogee_km": 476.51787292249264,
      "perigee_km": 473.88482032971933,
      "latitude_deg": 1.0909943019315593e-05,
      "longitude_deg": -90.5490404363016,
      "height_km": 476.0937955159592,
      "semi_major_axis_km": 6853.338346626106,
      "eccentricity": 0.0001921,
      "inclination_deg": 53.1611,
      "raan_deg": 42.6448,
      "arg_perigee_deg": 89.7901,
      "mean_anomaly_deg": 270.332,
      "mean_motion_rev_day": 15.30204596
    },
    {
      "epoch": "2026-05-12T18:39:33.467616Z",
      "apogee_km": 476.04726196186857,
      "perigee_km": 474.38189752798917,
      "latitude_deg": -4.446090163005301e-05,
      "longitude_deg": -112.64419423539412,
      "height_km": 476.17813802133867,
      "semi_major_axis_km": 6853.351579744928,
      "eccentricity": 0.0001215,
      "inclination_deg": 53.1611,
      "raan_deg": 37.7924,
      "arg_perigee_deg": 94.4964,
      "mean_anomaly_deg": 265.6175,
      "mean_motion_rev_day": 15.30200164
    },
    {
      "epoch": "2026-05-13T10:20:05.504064Z",
      "apogee_km": 476.03371047905966,
      "perigee_km": 474.40672347574946,
      "latitude_deg": -3.644636867900031e-05,
      "longitude_deg": 8.545454324872304,
      "height_km": 476.1734396762454,
      "semi_major_axis_km": 6853.357216977404,
      "eccentricity": 0.0001187,
      "inclination_deg": 53.1607,
      "raan_deg": 34.7593,
      "arg_perigee_deg": 93.8733,
      "mean_anomaly_deg": 266.2403,
      "mean_motion_rev_day": 15.30198276
    },
    {
      "epoch": "2026-05-14T00:26:34.194048Z",
      "apogee_km": 476.1400200039043,
      "perigee_km": 474.25850506638744,
      "latitude_deg": 6.857240647288394e-06,
      "longitude_deg": 153.61655164751284,
      "height_km": 476.06286523384745,
      "semi_major_axis_km": 6853.336262535146,
      "eccentricity": 0.00013727,
      "inclination_deg": 53.1605,
      "raan_deg": 32.0293,
      "arg_perigee_deg": 87.9052,
      "mean_anomaly_deg": 272.2106,
      "mean_motion_rev_day": 15.30205294
    }
  ]
}